GLOBALSTAR M075         
1 37192U 10054E   25341.09402352 -.00000076  00000+0  15263-3 0  9995
2 37192  51.9967  15.0726 0000344 110.2382 276.7324 12.62270266697681
GLOBALSTAR M073         
1 37193U 10054F   25341.28323794 -.00000074  00000+0  16615-3 0  9999
2 37193  52.0067 288.4514 0000636  33.8738 131.2489 12.62264934699690
GLOBALSTAR M083         
1 37739U 11033A   25341.13378227 -.00000057  00000+0  26217-3 0  9998
2 37739  51.9852 237.3978 0000788  56.0442  91.5615 12.62265369668698
GLOBALSTAR M088         
1 37740U 11033B   25341.19201745 -.00000109  00000+0 -27980-4 0  9994
2 37740  52.0191 143.1814 0001096 103.2401  68.2972 12.62271015664243
GLOBALSTAR M091         
1 37741U 11033C   25341.12597968 -.00000111  00000+0 -39446-4 0  9996
2 37741  51.9991 106.6318 0000821 122.2895  48.3958 12.62262355665023
GLOBALSTAR M085         
1 37742U 11033D   25341.15703368 -.00000088  00000+0  88052-4 0  9992
2 37742  52.0145  57.6613 0000487 147.1697 225.3734 12.62267079665548
GLOBALSTAR M081         
1 37743U 11033E   25341.26743390 -.00000092  00000+0  66003-4 0  9991
2 37743  51.9972  59.9785 0000425 120.7563 274.2181 12.62270645665701
GLOBALSTAR M089         
1 37744U 11033F   25341.14855072 -.00000078  00000+0  14617-3 0  9997
2 37744  51.9954  14.5366 0000552  81.9177 313.3088 12.62261948666533
